IONOSFERA-M 3           
1 64876U 25155A   26062.87314726  .00000109  00000+0  69544-4 0  9994
2 64876  98.5912  27.4968 0001901 127.2851 232.8500 14.21464867 31445
IONOSFERA-M 4           
1 64877U 25155B   26062.83774442  .00000101  00000+0  65898-4 0  9996
2 64877  98.5909  27.3809 0001554 109.2024 250.9322 14.21466463 31437
MICROCARB               
1 64899U 25156A   26062.67031346  .00000885  00000+0  14803-3 0  9990
2 64899  97.9894 141.6762 0015228 247.0615 112.8985 14.72191243 32445
CO3D 3                  
1 64900U 25156B   26062.80535392  .00002730  00000+0  12921-3 0  9998
2 64900  97.4331 143.0108 0001426 158.5352 201.5943 15.20198164 33521
CO3D 4                  
1 64901U 25156C   26061.29158243  .00001237  00000+0  60250-4 0  9997
2 64901  97.4334 141.5187 0000254 280.3117  79.8089 15.20203154 33293
CO3D 2                  
1 64902U 25156D   26062.83798652  .00007489  00000+0  34869-3 0  9994
2 64902  97.4335 142.9421 0001325 133.6280 226.5065 15.20205831 33527
CO3D 1                  
1 64903U 25156E   26062.83813813  .00005071  00000+0  23723-3 0  9994
2 64903  97.4333 142.9419 0001165 140.5200 219.6120 15.20197142 33524
SENTINEL-6B             
1 66514U 25264A   26062.21488236 -.00000061  00000+0  11929-5 0  9995
2 66514  66.0446 355.2849 0008002 270.7043  89.3055 12.80929300 13591
CSG-3                   
1 67304U 26001A   26062.88258836  .00000630  00000+0  85657-4 0  9996
2 67304  97.8862 248.0043 0001355  89.2081 270.9287 14.82165431  8867
