[{"OBJECT_NAME":"IONOSFERA-M 3","OBJECT_ID":"2025-155A","EPOCH":"2026-03-03T20:57:19.923264","MEAN_MOTION":14.21464867,"ECCENTRICITY":0.0001901,"INCLINATION":98.5912,"RA_OF_ASC_NODE":27.4968,"ARG_OF_PERICENTER":127.2851,"MEAN_ANOMALY":232.85,"EPHEMERIS_TYPE":0,"CLASSIFICATION_TYPE":"U","NORAD_CAT_ID":64876,"ELEMENT_SET_NO":999,"REV_AT_EPOCH":3144,"BSTAR":6.9544e-5,"MEAN_MOTION_DOT":1.09e-6,"MEAN_MOTION_DDOT":0},{"OBJECT_NAME":"IONOSFERA-M 4","OBJECT_ID":"2025-155B","EPOCH":"2026-03-03T20:06:21.117888","MEAN_MOTION":14.21466463,"ECCENTRICITY":0.0001554,"INCLINATION":98.5909,"RA_OF_ASC_NODE":27.3809,"ARG_OF_PERICENTER":109.2024,"MEAN_ANOMALY":250.9322,"EPHEMERIS_TYPE":0,"CLASSIFICATION_TYPE":"U","NORAD_CAT_ID":64877,"ELEMENT_SET_NO":999,"REV_AT_EPOCH":3143,"BSTAR":6.5898e-5,"MEAN_MOTION_DOT":1.01e-6,"MEAN_MOTION_DDOT":0},{"OBJECT_NAME":"MICROCARB","OBJECT_ID":"2025-156A","EPOCH":"2026-03-03T16:05:15.082944","MEAN_MOTION":14.72191243,"ECCENTRICITY":0.0015228,"INCLINATION":97.9894,"RA_OF_ASC_NODE":141.6762,"ARG_OF_PERICENTER":247.0615,"MEAN_ANOMALY":112.8985,"EPHEMERIS_TYPE":0,"CLASSIFICATION_TYPE":"U","NORAD_CAT_ID":64899,"ELEMENT_SET_NO":999,"REV_AT_EPOCH":3244,"BSTAR":0.00014803,"MEAN_MOTION_DOT":8.85e-6,"MEAN_MOTION_DDOT":0},{"OBJECT_NAME":"CO3D 3","OBJECT_ID":"2025-156B","EPOCH":"2026-03-03T19:19:42.578688","MEAN_MOTION":15.20198164,"ECCENTRICITY":0.0001426,"INCLINATION":97.4331,"RA_OF_ASC_NODE":143.0108,"ARG_OF_PERICENTER":158.5352,"MEAN_ANOMALY":201.5943,"EPHEMERIS_TYPE":0,"CLASSIFICATION_TYPE":"U","NORAD_CAT_ID":64900,"ELEMENT_SET_NO":999,"REV_AT_EPOCH":3352,"BSTAR":0.00012921,"MEAN_MOTION_DOT":2.73e-5,"MEAN_MOTION_DDOT":0},{"OBJECT_NAME":"CO3D 4","OBJECT_ID":"2025-156C","EPOCH":"2026-03-02T06:59:52.721952","MEAN_MOTION":15.20203154,"ECCENTRICITY":2.545e-5,"INCLINATION":97.4334,"RA_OF_ASC_NODE":141.5187,"ARG_OF_PERICENTER":280.3117,"MEAN_ANOMALY":79.8089,"EPHEMERIS_TYPE":0,"CLASSIFICATION_TYPE":"U","NORAD_CAT_ID":64901,"ELEMENT_SET_NO":999,"REV_AT_EPOCH":3329,"BSTAR":6.0250155e-5,"MEAN_MOTION_DOT":1.237e-5,"MEAN_MOTION_DDOT":0},{"OBJECT_NAME":"CO3D 2","OBJECT_ID":"2025-156D","EPOCH":"2026-03-03T20:06:42.035328","MEAN_MOTION":15.20205831,"ECCENTRICITY":0.0001325,"INCLINATION":97.4335,"RA_OF_ASC_NODE":142.9421,"ARG_OF_PERICENTER":133.628,"MEAN_ANOMALY":226.5065,"EPHEMERIS_TYPE":0,"CLASSIFICATION_TYPE":"U","NORAD_CAT_ID":64902,"ELEMENT_SET_NO":999,"REV_AT_EPOCH":3352,"BSTAR":0.00034869,"MEAN_MOTION_DOT":7.489e-5,"MEAN_MOTION_DDOT":0},{"OBJECT_NAME":"CO3D 1","OBJECT_ID":"2025-156E","EPOCH":"2026-03-03T20:06:55.134432","MEAN_MOTION":15.20197142,"ECCENTRICITY":0.0001165,"INCLINATION":97.4333,"RA_OF_ASC_NODE":142.9419,"ARG_OF_PERICENTER":140.52,"MEAN_ANOMALY":219.612,"EPHEMERIS_TYPE":0,"CLASSIFICATION_TYPE":"U","NORAD_CAT_ID":64903,"ELEMENT_SET_NO":999,"REV_AT_EPOCH":3352,"BSTAR":0.00023723,"MEAN_MOTION_DOT":5.071e-5,"MEAN_MOTION_DDOT":0},{"OBJECT_NAME":"SENTINEL-6B","OBJECT_ID":"2025-264A","EPOCH":"2026-03-03T05:09:25.835904","MEAN_MOTION":12.809293,"ECCENTRICITY":0.00080028,"INCLINATION":66.0446,"RA_OF_ASC_NODE":355.2849,"ARG_OF_PERICENTER":270.7043,"MEAN_ANOMALY":89.3055,"EPHEMERIS_TYPE":0,"CLASSIFICATION_TYPE":"U","NORAD_CAT_ID":66514,"ELEMENT_SET_NO":999,"REV_AT_EPOCH":1359,"BSTAR":1.192888e-6,"MEAN_MOTION_DOT":-6.1e-7,"MEAN_MOTION_DDOT":0},{"OBJECT_NAME":"CSG-3","OBJECT_ID":"2026-001A","EPOCH":"2026-03-03T21:10:55.634304","MEAN_MOTION":14.82165431,"ECCENTRICITY":0.0001355,"INCLINATION":97.8862,"RA_OF_ASC_NODE":248.0043,"ARG_OF_PERICENTER":89.2081,"MEAN_ANOMALY":270.9287,"EPHEMERIS_TYPE":0,"CLASSIFICATION_TYPE":"U","NORAD_CAT_ID":67304,"ELEMENT_SET_NO":999,"REV_AT_EPOCH":886,"BSTAR":8.5657e-5,"MEAN_MOTION_DOT":6.3e-6,"MEAN_MOTION_DDOT":0}]
